[{"OBJECT_NAME":"STARLINK-35341","OBJECT_ID":"2025-232Y","EPOCH":"2026-03-09T12:11:41.288064","MEAN_MOTION":15.30238854,"ECCENTRICITY":0.00012331,"INCLINATION":53.159,"RA_OF_ASC_NODE":105.0333,"ARG_OF_PERICENTER":97.2152,"MEAN_ANOMALY":262.8989,"EPHEMERIS_TYPE":0,"CLASSIFICATION_TYPE":"U","NORAD_CAT_ID":66027,"ELEMENT_SET_NO":999,"REV_AT_EPOCH":2340,"BSTAR":0.00084236334,"MEAN_MOTION_DOT":0.00024702,"MEAN_MOTION_DDOT":0},{"OBJECT_NAME":"CZ-2C DEB","OBJECT_ID":"2018-056F","EPOCH":"2026-03-09T10:57:26.102304","MEAN_MOTION":15.27739248,"ECCENTRICITY":0.00119172,"INCLINATION":98.1188,"RA_OF_ASC_NODE":250.032,"ARG_OF_PERICENTER":4.6998,"MEAN_ANOMALY":355.4349,"EPHEMERIS_TYPE":0,"CLASSIFICATION_TYPE":"U","NORAD_CAT_ID":43534,"ELEMENT_SET_NO":999,"REV_AT_EPOCH":41855,"BSTAR":0.00085537155,"MEAN_MOTION_DOT":0.00023193,"MEAN_MOTION_DDOT":0}]
